STARLINK-1624
1 26130C 20057P   21325.09776837  .00002647  00000-0  17740-3 0  3252
2 26130  53.0523 122.7913 0001450  77.6071 179.2303 15.06381567    15
